[{"OBJECT_NAME":"CUTE-1.7+APD II (CO-65)","OBJECT_ID":"2008-021C","EPOCH":"2026-03-09T21:54:04.726080","MEAN_MOTION":15.08376872,"ECCENTRICITY":0.00096053,"INCLINATION":97.8207,"RA_OF_ASC_NODE":48.3884,"ARG_OF_PERICENTER":18.7003,"MEAN_ANOMALY":341.4575,"EPHEMERIS_TYPE":0,"CLASSIFICATION_TYPE":"U","NORAD_CAT_ID":32785,"ELEMENT_SET_NO":999,"REV_AT_EPOCH":97022,"BSTAR":0.00047295391,"MEAN_MOTION_DOT":7.295e-5,"MEAN_MOTION_DDOT":0},{"OBJECT_NAME":"STARLINK-4608","OBJECT_ID":"2022-104AK","EPOCH":"2026-03-09T17:49:33.021984","MEAN_MOTION":15.08836947,"ECCENTRICITY":0.00013691,"INCLINATION":53.2167,"RA_OF_ASC_NODE":233.8378,"ARG_OF_PERICENTER":88.8509,"MEAN_ANOMALY":271.264,"EPHEMERIS_TYPE":0,"CLASSIFICATION_TYPE":"U","NORAD_CAT_ID":53621,"ELEMENT_SET_NO":999,"REV_AT_EPOCH":19564,"BSTAR":3.7606891e-5,"MEAN_MOTION_DOT":3.11e-6,"MEAN_MOTION_DDOT":0}]
